*******************************************************************************
 Revised: April 12, 2021        Jupiter Barycenter                            5
 
 Dynamical point:
 ---------------
 The location of the center-of-mass of the Jupiter system. The point about 
 which Jupiter and its satellites revolve. See 599 for Jupiter center.
*******************************************************************************


*******************************************************************************
Ephemeris / WWW_USER Mon Jan  5 13:47:42 2026 Pasadena, USA      / Horizons
*******************************************************************************
Target body name: Jupiter Barycenter (5)          {source: DE441}
Center body name: Solar System Barycenter (0)     {source: DE441}
Center-site name: BODY CENTER
*******************************************************************************
Start time      : A.D. 2026-Jan-05 00:00:00.0000 TDB
Stop  time      : A.D. 2026-Apr-03 00:00:00.0000 TDB
Step-size       : 1440 minutes
*******************************************************************************
Center geodetic : 0.0, 0.0, 0.0                   {E-lon(deg),Lat(deg),Alt(km)}
Center cylindric: 0.0, 0.0, 0.0                   {E-lon(deg),Dxy(km),Dz(km)}
Center radii    : (undefined)
Output units    : KM-S
Calendar mode   : Mixed Julian/Gregorian
Output type     : GEOMETRIC cartesian states
Output format   : 3 (position, velocity, LT, range, range-rate)
Reference frame : Ecliptic of J2000.0
*******************************************************************************
JDTDB
   X     Y     Z
   VX    VY    VZ
   LT    RG    RR
*******************************************************************************
$$SOE
2461101.500000000 = A.D. 2026-Mar-02 00:00:00.0000 TDB 
 X =-3.176848926043038E+08 Y = 7.149236086587625E+08 Z = 4.144129858478606E+06
 VX=-1.209523806262136E+01 VY=-4.687148151054918E+00 VZ= 2.901211441368909E-01
 LT= 2.609606952801962E+03 RG= 7.823404827943900E+08 RR= 6.298074112348003E-01
2461102.500000000 = A.D. 2026-Mar-03 00:00:00.0000 TDB 
 X =-3.187295933060358E+08 Y = 7.145179004860185E+08 Z = 4.169192057272077E+06
 VX=-1.208764464835847E+01 VY=-4.704242533933464E+00 VZ= 2.900222499760432E-01
 LT= 2.609788440028728E+03 RG= 7.823948912961979E+08 RR= 6.296484397040114E-01
2461103.500000000 = A.D. 2026-Mar-04 00:00:00.0000 TDB 
 X =-3.197736369254321E+08 Y = 7.141107159299330E+08 Z = 4.194245686609477E+06
 VX=-1.208002782756692E+01 VY=-4.721323686460721E+00 VZ= 2.899227771714643E-01
 LT= 2.609969881258970E+03 RG= 7.824492860085944E+08 RR= 6.294882120427634E-01
2461104.500000000 = A.D. 2026-Mar-05 00:00:00.0000 TDB 
 X =-3.208170214412562E+08 Y = 7.137020561348797E+08 Z = 4.219290696515083E+06
 VX=-1.207238762541816E+01 VY=-4.738391579212751E+00 VZ= 2.898227261641024E-01
 LT= 2.610151276130791E+03 RG= 7.825036668230866E+08 RR= 6.293267290951532E-01
2461105.500000000 = A.D. 2026-Mar-06 00:00:00.0000 TDB 
 X =-3.218597448344471E+08 Y = 7.132919222477725E+08 Z = 4.244327037051141E+06
 VX=-1.206472406711490E+01 VY=-4.755446182820335E+00 VZ= 2.897220973960641E-01
 LT= 2.610332624282543E+03 RG= 7.825580336312542E+08 RR= 6.291639917060499E-01
2461106.500000000 = A.D. 2026-Mar-07 00:00:00.0000 TDB 
 X =-3.229018050881229E+08 Y = 7.128803154180602E+08 Z = 4.269354658318311E+06
 VX=-1.205703717788389E+01 VY=-4.772487467963943E+00 VZ= 2.896208913098537E-01
 LT= 2.610513925352818E+03 RG= 7.826123863247499E+08 RR= 6.290000007227474E-01
2461107.500000000 = A.D. 2026-Mar-08 00:00:00.0000 TDB 
 X =-3.239432001875821E+08 Y = 7.124672367977228E+08 Z = 4.294373510455519E+06
 VX=-1.204932698298035E+01 VY=-4.789515405377414E+00 VZ= 2.895191083490298E-01
 LT= 2.610695178980453E+03 RG= 7.826667247952999E+08 RR= 6.288347569934732E-01
2461108.500000000 = A.D. 2026-Mar-09 00:00:00.0000 TDB 
 X =-3.249839281203066E+08 Y = 7.120526875412669E+08 Z = 4.319383543639868E+06
 VX=-1.204159350768706E+01 VY=-4.806529965847036E+00 VZ= 2.894167489579964E-01
 LT= 2.610876384804530E+03 RG= 7.827210489347037E+08 RR= 6.286682613678606E-01
2461109.500000000 = A.D. 2026-Mar-10 00:00:00.0000 TDB 
 X =-3.260239868759641E+08 Y = 7.116366688057203E+08 Z = 4.344384708087057E+06
 VX=-1.203383677731424E+01 VY=-4.823531120211503E+00 VZ= 2.893138135820024E-01
 LT= 2.611057542464374E+03 RG= 7.827753586348342E+08 RR= 6.285005146969941E-01
2461110.500000000 = A.D. 2026-Mar-11 00:00:00.0000 TDB 
 X =-3.270633744464099E+08 Y = 7.112191817506287E+08 Z = 4.369376954051316E+06
 VX=-1.202605681719948E+01 VY=-4.840518839361883E+00 VZ= 2.892103026671340E-01
 LT= 2.611238651599560E+03 RG= 7.828296537876379E+08 RR= 6.283315178334264E-01
2461111.500000000 = A.D. 2026-Mar-12 00:00:00.0000 TDB 
 X =-3.281020888256901E+08 Y = 7.108002275380497E+08 Z = 4.394360231825292E+06
 VX=-1.201825365270763E+01 VY=-4.857493094241566E+00 VZ= 2.891062166603171E-01
 LT= 2.611419711849906E+03 RG= 7.828839342851347E+08 RR= 6.281612716312287E-01
2461112.500000000 = A.D. 2026-Mar-13 00:00:00.0000 TDB 
 X =-3.291401280100430E+08 Y = 7.103798073325500E+08 Z = 4.419334491740495E+06
 VX=-1.201042730923071E+01 VY=-4.874453855846231E+00 VZ= 2.890015560093095E-01
 LT= 2.611600722855474E+03 RG= 7.829382000194193E+08 RR= 6.279897769460040E-01
2461113.500000000 = A.D. 2026-Mar-14 00:00:00.0000 TDB 
 X =-3.301774899979024E+08 Y = 7.099579223011997E+08 Z = 4.444299684166878E+06
 VX=-1.200257781218785E+01 VY=-4.891401095223802E+00 VZ= 2.888963211626985E-01
 LT= 2.611781684256579E+03 RG= 7.829924508826596E+08 RR= 6.278170346349398E-01
2461114.500000000 = A.D. 2026-Mar-15 00:00:00.0000 TDB 
 X =-3.312141727898992E+08 Y = 7.095345736135679E+08 Z = 4.469255759513497E+06
 VX=-1.199470518702512E+01 VY=-4.908334783474404E+00 VZ= 2.887905125699000E-01
 LT= 2.611962595693776E+03 RG= 7.830466867670975E+08 RR= 6.276430455568223E-01
2461115.500000000 = A.D. 2026-Mar-16 00:00:00.0000 TDB 
 X =-3.322501743888641E+08 Y = 7.091097624417187E+08 Z = 4.494202668228060E+06
 VX=-1.198680945921555E+01 VY=-4.925254891750332E+00 VZ= 2.886841306811543E-01
 LT= 2.612143456807875E+03 RG= 7.831009075650495E+08 RR= 6.274678105720721E-01
2461116.500000000 = A.D. 2026-Mar-17 00:00:00.0000 TDB 
 X =-3.332854927998298E+08 Y = 7.086834899602062E+08 Z = 4.519140360797226E+06
 VX=-1.197889065425893E+01 VY=-4.942161391255999E+00 VZ= 2.885771759475206E-01
 LT= 2.612324267239928E+03 RG= 7.831551131689070E+08 RR= 6.272913305427787E-01
2461117.500000000 = A.D. 2026-Mar-18 00:00:00.0000 TDB 
 X =-3.343201260300333E+08 Y = 7.082557573460701E+08 Z = 4.544068787746847E+06
 VX=-1.197094879768178E+01 VY=-4.959054253247903E+00 VZ= 2.884696488208789E-01
 LT= 2.612505026631240E+03 RG= 7.832093034711350E+08 RR= 6.271136063327238E-01
2461118.500000000 = A.D. 2026-Mar-19 00:00:00.0000 TDB 
 X =-3.353540720889184E+08 Y = 7.078265657788316E+08 Z = 4.568987899641633E+06
 VX=-1.196298391503721E+01 VY=-4.975933449034585E+00 VZ= 2.883615497539209E-01
 LT= 2.612685734623363E+03 RG= 7.832634783642738E+08 RR= 6.269346388074100E-01
2461119.500000000 = A.D. 2026-Mar-20 00:00:00.0000 TDB 
 X =-3.363873289881377E+08 Y = 7.073959164404885E+08 Z = 4.593897647085547E+06
 VX=-1.195499603190487E+01 VY=-4.992798949976587E+00 VZ= 2.882528792001513E-01
 LT= 2.612866390858099E+03 RG= 7.833176377409384E+08 RR= 6.267544288340937E-01
2461120.500000000 = A.D. 2026-Mar-21 00:00:00.0000 TDB 
 X =-3.374198947415550E+08 Y = 7.069638105155106E+08 Z = 4.618797980721682E+06
 VX=-1.194698517389083E+01 VY=-5.009650727486415E+00 VZ= 2.881436376138842E-01
 LT= 2.613046994977502E+03 RG= 7.833717814938189E+08 RR= 6.265729772818077E-01
2461121.500000000 = A.D. 2026-Mar-22 00:00:00.0000 TDB 
 X =-3.384517673652476E+08 Y = 7.065302491908355E+08 Z = 4.643688851232529E+06
 VX=-1.193895136662747E+01 VY=-5.026488753028496E+00 VZ= 2.880338254502355E-01
 LT= 2.613227546623872E+03 RG= 7.834259095156802E+08 RR= 6.263902850213930E-01
2461122.500000000 = A.D. 2026-Mar-23 00:00:00.0000 TDB 
 X =-3.394829448775088E+08 Y = 7.060952336558642E+08 Z = 4.668570209339947E+06
 VX=-1.193089463577340E+01 VY=-5.043312998119140E+00 VZ= 2.879234431651276E-01
 LT= 2.613408045439766E+03 RG= 7.834800216993632E+08 RR= 6.262063529255185E-01
2461123.500000000 = A.D. 2026-Mar-24 00:00:00.0000 TDB 
 X =-3.405134252988496E+08 Y = 7.056587651024565E+08 Z = 4.693442005805165E+06
 VX=-1.192281500701335E+01 VY=-5.060123434326497E+00 VZ= 2.878124912152791E-01
 LT= 2.613588491067990E+03 RG= 7.835341179377838E+08 RR= 6.260211818687125E-01
2461124.500000000 = A.D. 2026-Mar-25 00:00:00.0000 TDB 
 X =-3.415432066520014E+08 Y = 7.052208447249259E+08 Z = 4.718304191428781E+06
 VX=-1.191471250605809E+01 VY=-5.076920033270525E+00 VZ= 2.877009700582058E-01
 LT= 2.613768883151602E+03 RG= 7.835881981239333E+08 RR= 6.258347727273809E-01
2461125.500000000 = A.D. 2026-Mar-26 00:00:00.0000 TDB 
 X =-3.425722869619184E+08 Y = 7.047814737200364E+08 Z = 4.743156717051208E+06
 VX=-1.190658715864432E+01 VY=-5.093702766622938E+00 VZ= 2.875888801522162E-01
 LT= 2.613949221333913E+03 RG= 7.836422621508795E+08 RR= 6.256471263798404E-01
2461126.500000000 = A.D. 2026-Mar-27 00:00:00.0000 TDB 
 X =-3.436006642557791E+08 Y = 7.043406532869970E+08 Z = 4.767999533552319E+06
 VX=-1.189843899053455E+01 VY=-5.110471606107176E+00 VZ= 2.874762219564082E-01
 LT= 2.614129505258486E+03 RG= 7.836963099117657E+08 RR= 6.254582437063373E-01
2461127.500000000 = A.D. 2026-Mar-28 00:00:00.0000 TDB 
 X =-3.446283365629894E+08 Y = 7.038983846274574E+08 Z = 4.792832591851830E+06
 VX=-1.189026802751702E+01 VY=-5.127226523498365E+00 VZ= 2.873629959306683E-01
 LT= 2.614309734569144E+03 RG= 7.837503412998111E+08 RR= 6.252681255890625E-01
2461128.500000000 = A.D. 2026-Mar-29 00:00:00.0000 TDB 
 X =-3.456553019151841E+08 Y = 7.034546689455042E+08 Z = 4.817655842908949E+06
 VX=-1.188207429540560E+01 VY=-5.143967490623271E+00 VZ= 2.872492025356634E-01
 LT= 2.614489908909957E+03 RG= 7.838043562083122E+08 RR= 6.250767729121911E-01
